[{"OBJECT_NAME":"CO3D 4","OBJECT_ID":"2025-156C","EPOCH":"2026-03-02T06:59:52.721952","MEAN_MOTION":15.20203154,"ECCENTRICITY":2.545e-5,"INCLINATION":97.4334,"RA_OF_ASC_NODE":141.5187,"ARG_OF_PERICENTER":280.3117,"MEAN_ANOMALY":79.8089,"EPHEMERIS_TYPE":0,"CLASSIFICATION_TYPE":"U","NORAD_CAT_ID":64901,"ELEMENT_SET_NO":999,"REV_AT_EPOCH":3329,"BSTAR":6.0250155e-5,"MEAN_MOTION_DOT":1.237e-5,"MEAN_MOTION_DDOT":0},{"OBJECT_NAME":"LEMUR-2-LAILA","OBJECT_ID":"2025-276DQ","EPOCH":"2026-03-09T17:30:24.523200","MEAN_MOTION":15.2007121,"ECCENTRICITY":0.00022825,"INCLINATION":97.4243,"RA_OF_ASC_NODE":144.1425,"ARG_OF_PERICENTER":132.0154,"MEAN_ANOMALY":228.1276,"EPHEMERIS_TYPE":0,"CLASSIFICATION_TYPE":"U","NORAD_CAT_ID":66776,"ELEMENT_SET_NO":999,"REV_AT_EPOCH":1533,"BSTAR":0.00035559412,"MEAN_MOTION_DOT":7.609e-5,"MEAN_MOTION_DDOT":0}]
